ONEWEB-0176             
1 48210U 21031A   25197.49955685  .00000229  00000+0  58193-3 0  9998
2 48210  87.9050 356.4918 0001859  95.0037 265.1305 13.14504275204212
ONEWEB-0180             
1 48213U 21031D   25197.47576603 -.00000142  00000+0 -41705-3 0  9995
2 48213  87.9048 356.4709 0001895  86.9262 273.2085 13.14503614204119
ONEWEB-0218             
1 48214U 21031E   25197.49798304  .00000191  00000+0  48131-3 0  9994
2 48214  87.9046 356.4676 0002472  74.6015 285.5387 13.14503361204270
ONEWEB-0198             
1 48216U 21031G   25197.47101914 -.00000157  00000+0 -45804-3 0  9997
2 48216  87.9050 356.5178 0001929  83.0987 277.0363 13.14503092204386
ONEWEB-0189             
1 48217U 21031H   25197.48369212 -.00000029  00000+0 -11349-3 0  9991
2 48217  87.9049 356.4891 0001909  81.4631 278.6715 13.14503825204126
